GAOFEN-5 01             
1 43461U 18043A   26118.18935597  .00000410  00000+0  94501-4 0  9996
2 43461  98.4538  88.7376 0000969 189.0846 171.0337 14.60569543424393
GAOFEN-6                
1 43484U 18048A   26118.33194534  .00000698  00000+0  10705-3 0  9992
2 43484  97.7792 182.8349 0011631 343.7723  16.3114 14.76570862426039
GAOFEN-11 01            
1 43585U 18063A   26118.28637855  .00016435  00000+0  25700-3 0  9990
2 43585  97.1330 185.3527 0005064 140.6551 219.5072 15.53830818432599
ICESAT-2                
1 43613U 18070A   26118.19444680  .00003924  00000+0  14253-3 0  9992
2 43613  92.0018 277.4930 0001894  67.1088 293.0361 15.28259511424826
HYSIS                   
1 43719U 18096A   26118.33846226  .00001346  00000+0  19068-3 0  9990
2 43719  97.9866 185.4700 0000788  83.6610 276.4691 14.78672683400059
KAZSTSAT                
1 43783U 18099AB  26118.32664425  .00000829  00000+0  71550-4 0  9992
2 43783  97.4363 152.5112 0004151 190.1750 169.9391 14.99779123403838
SAUDISAT 5A             
1 43831U 18102A   26118.32183189  .00006344  00000+0  23806-3 0  9992
2 43831  97.3107 180.8733 0008325 317.8197  42.2401 15.27533619408065
SAUDISAT 5B             
1 43833U 18102C   26118.28401622  .00005549  00000+0  20678-3 0  9994
2 43833  97.3209 183.8155 0009102 320.0676  39.9893 15.27815785408170
GAOFEN-10R              
1 44622U 19066A   26118.29211993  .00001398  00000+0  17895-3 0  9997
2 44622  98.0466  71.5224 0004462 310.9232  49.1595 14.82946587354986
CARTOSAT-3              
1 44804U 19081A   26118.29847666  .00003841  00000+0  18494-3 0  9999
2 44804  97.4344 180.9567 0010999 331.3398  28.7231 15.19303056355893
GAOFEN-12 01            
1 44819U 19082A   26118.26670159  .00000444  00000+0  64714-4 0  9997
2 44819  97.8119 125.9631 0001530 126.8649 233.2704 14.80416752346704
CSG-1                   
1 44873U 19092A   26118.29609692  .00000535  00000+0  73750-4 0  9996
2 44873  97.8887 302.6204 0001291  93.6278 266.5083 14.82156434344087
NEMO-HD                 
1 46277U 20061F   26118.22883339  .00010435  00000+0  23410-3 0  9996
2 46277  97.1961 180.7144 0001553 133.4161 226.7217 15.43577457314271
SENTINEL-6A             
1 46984U 20086A   26118.27305046 -.00000068  00000+0 -31276-4 0  9990
2 46984  66.0413 238.7228 0007784 270.3348  89.6775 12.80930932253939
GAOFEN-12 02            
1 48079U 21026A   26118.27247219  .00000467  00000+0  68269-4 0  9992
2 48079  97.9926 116.6601 0005858  48.5041 311.6673 14.80255163274376
PLEIADES NEO 3          
1 48268U 21034A   26118.27912532  .00000118  00000+0  21572-4 0  9997
2 48268  97.8929 193.7621 0001314  94.2828 265.8535 14.81669414270260
PLEIADES NEO 4          
1 49070U 21073E   26118.24534581  .00000109  00000+0  20484-4 0  9994
2 49070  97.8927 193.7244 0001379  98.1854 261.9515 14.81674470253976
LANDSAT 9               
1 49260U 21088A   26118.20535348  .00000373  00000+0  92696-4 0  9996
2 49260  98.1870 189.1712 0001276 105.3568 254.7772 14.57122132243729
CSG-2                   
1 51444U 22008A   26118.32984054  .00000384  00000+0  54754-4 0  9996
2 51444  97.8887 302.6499 0001366  85.6950 274.4419 14.82152055229208
GAOFEN-12 03            
1 52912U 22069A   26118.29271380  .00000455  00000+0  66882-4 0  9995
2 52912  97.8341   7.4077 0001196  43.4281 316.7025 14.79950388207239
SWOT                    
1 54754U 22173A   26118.18466297  .00000064  00000+0  45368-4 0  9990
2 54754  77.6078 102.8087 0000781 148.1437 211.9762 14.00170784172158
GAOFEN-12 04            
1 57654U 23123A   26118.24809544  .00001104  00000+0  15230-3 0  9991
2 57654  97.9134  36.9847 0001293  90.6677 269.4683 14.80129057145240
PARS 1                  
1 59065U 24039Q   26118.25589663  .00012809  00000+0  27616-3 0  9999
2 59065  97.4798  97.6523 0007604 302.2976  57.7536 15.44689161120932
RESURS-P 4              
1 59371U 24061A   26118.29546703  .00003510  00000+0  11666-3 0  9993
2 59371  97.2718  67.0858 0002485  58.6969 301.4516 15.31835319116127
LEGION 1                
1 59625U 24081A   26118.28444420  .00004651  00000+0  24006-3 0  9998
2 59625  97.5025 196.6690 0009974 184.2195 175.8956 15.16775366109977
LEGION 2                
1 59626U 24081B   26118.25174661  .00004377  00000+0  22457-3 0  9996
2 59626  97.5025 196.7265 0011476 158.3411 201.8310 15.17005019109976
ALOS-4 (DAICHI-4)       
1 60182U 24123A   26117.83964986  .00001386  00000+0  19241-3 0  9996
2 60182  97.9208 215.7270 0001617  99.1644 260.9750 14.79472632 98434
LEGION 3                
1 60452U 24146A   26117.98013170  .00005213  00000+0  28269-3 0  9990
2 60452  45.0019 299.7456 0008904 238.0570 121.9443 15.15661394 94408
LEGION 4                
1 60453U 24146B   26118.24390386  .00004369  00000+0  24448-3 0  9994
2 60453  45.0030  30.2027 0010291  34.4496 325.7047 15.14865156 93292
SENTINEL-2C             
1 60989U 24157A   26118.10262937  .00000116  00000+0  60893-4 0  9996
2 60989  98.5630 193.5970 0001499 101.3859 258.7492 14.30816947 85822
IONOSFERA-M 1           
1 61735U 24199A   26118.26221510  .00000062  00000+0  47420-4 0  9992
2 61735  98.7243 351.9447 0000380  18.2464 341.8728 14.22744735120607
IONOSFERA-M 2           
1 61736U 24199B   26118.29662490  .00000083  00000+0  56756-4 0  9997
2 61736  98.7241 351.8899 0001948  95.0478 265.0922 14.22747629123730
BIOMASS                 
1 63772U 25090A   26118.05585655  .00000901  00000+0  16725-3 0  9991
2 63772  98.0750 306.0963 0001402  88.6583 271.4782 14.67540108 53339
GOSAT-GW (IBUKI GW)     
1 64694U 25141A   26118.28133439 -.00000558  00000+0 -90044-4 0  9993
2 64694  98.0555  56.4155 0001381  83.3290 276.8072 14.67554967 44528
IONOSFERA-M 3           
1 64876U 25155A   26118.26966135  .00000067  00000+0  50318-4 0  9998
2 64876  98.5992  81.4420 0001892  41.9684 318.1638 14.21477540 39317
IONOSFERA-M 4           
1 64877U 25155B   26118.30457525  .00000069  00000+0  51120-4 0  9996
2 64877  98.5992  81.3940 0001345  54.1549 305.9753 14.21479545 39312
MICROCARB               
1 64899U 25156A   26118.19772342  .00000644  00000+0  10957-3 0  9996
2 64899  97.9836 196.2271 0017700  73.9506 286.3650 14.72271811 40618
CO3D 3                  
1 64900U 25156B   26118.29395613  .00004433  00000+0  20778-3 0  9994
2 64900  97.4328 197.7039 0001057  49.2236 310.9090 15.20200027 41959
CO3D 4                  
1 64901U 25156C   26118.29411104  .00004887  00000+0  22862-3 0  9998
2 64901  97.4326 197.7036 0001969 100.5750 259.5707 15.20217147 41953
CO3D 2                  
1 64902U 25156D   26118.26076252  .00004329  00000+0  20305-3 0  9998
2 64902  97.4326 197.5697 0000572  45.7623 314.3659 15.20187998 41948
CO3D 1                  
1 64903U 25156E   26103.64843334  .00003151  00000+0  12932-3 0  9997
2 64903  98.0928 182.3847 0110033   5.8142 354.4339 15.19681462 39726
SENTINEL-6B             
1 66514U 25264A   26118.27339457 -.00000070  00000+0 -37852-4 0  9996
2 66514  66.0413 238.8483 0007946 269.6658  90.3447 12.80930823 20777
CSG-3                   
1 67304U 26001A   26118.24121691  .00000366  00000+0  52547-4 0  9994
2 67304  97.8893 302.5631 0001895  80.7225 279.4203 14.82147547 17067
